ONEWEB-0113             
1 48050U 21025J   26011.98392201 -.00000025  00000+0 -10183-3 0  9995
2 48050  87.8998 351.2000 0001971  82.0167 278.1186 13.13987071233091
ONEWEB-0112             
1 48051U 21025K   26011.94562067  .00000019  00000+0  17147-4 0  9990
2 48051  87.9002 351.2487 0001492  85.0087 275.1213 13.13468506233084
ONEWEB-0156             
1 48052U 21025L   26011.95409033 -.00000205  00000+0 -59696-3 0  9998
2 48052  87.9002 351.2585 0001755  88.6546 271.4784 13.13470871233063
ONEWEB-0161             
1 48053U 21025M   26012.30959436  .00000400  00000+0  10596-2 0  9996
2 48053  87.8996 351.2013 0001710  90.2021 269.9304 13.13469783233047
ONEWEB-0158             
1 48054U 21025N   26011.96425046 -.00000183  00000+0 -53536-3 0  9995
2 48054  87.9000 351.2565 0001799  74.0124 286.1203 13.13470099233128
ONEWEB-0157             
1 48055U 21025P   26012.29435891  .00000028  00000+0  42375-4 0  9998
2 48055  87.9000 351.1962 0001540  96.7506 263.3798 13.13469229233105
ONEWEB-0162             
1 48056U 21025Q   26011.88962602 -.00000229  00000+0 -66168-3 0  9998
2 48056  87.9004 351.2799 0001885  88.2168 271.9177 13.13470506233028
ONEWEB-0155             
1 48057U 21025R   26011.97270510 -.00000195  00000+0 -56769-3 0  9997
2 48057  87.8994 351.2670 0001588  85.3823 274.7488 13.13471126233171
ONEWEB-0149             
1 48058U 21025S   26012.29943760  .00000263  00000+0  68449-3 0  9990
2 48058  87.9001 351.1957 0001933  88.3286 271.8065 13.13469530233028
ONEWEB-0148             
1 48059U 21025T   26011.95748030 -.00000163  00000+0 -48260-3 0  9996
2 48059  87.8994 351.2815 0002171  98.5595 261.5780 13.13469301233109
ONEWEB-0160             
1 48060U 21025U   26011.97440944 -.00000269  00000+0 -77167-3 0  9998
2 48060  87.8994 351.2754 0002204  65.9762 294.1598 13.13469856233052
ONEWEB-0163             
1 48061U 21025V   26011.95916987 -.00000243  00000+0 -69976-3 0  9993
2 48061  87.9000 351.2670 0001564  92.3499 267.7809 13.13470646233171
ONEWEB-0159             
1 48062U 21025W   26011.95070880 -.00000662  00000+0 -18469-2 0  9992
2 48062  87.9005 351.2528 0001780  91.0576 269.0757 13.13471569233094
ONEWEB-0164             
1 48063U 21025X   26011.93208213  .00000331  00000+0  87040-3 0  9997
2 48063  87.9003 351.2633 0001756  81.2691 278.8637 13.13470858233075
ONEWEB-0167             
1 48064U 21025Y   26011.96001915 -.00000309  00000+0 -87984-3 0  9995
2 48064  87.8991 351.2825 0001028  83.7912 276.3335 13.13470701233063
ONEWEB-0166             
1 48065U 21025Z   26011.90669675  .00000032  00000+0  53308-4 0  9998
2 48065  87.8999 351.2517 0001835  89.8292 270.3047 13.13470046233138
