[{"OBJECT_NAME":"ONEWEB-0113","OBJECT_ID":"2021-025J","EPOCH":"2026-01-11T23:36:50.861664","MEAN_MOTION":13.13987071,"ECCENTRICITY":0.00019714,"INCLINATION":87.8998,"RA_OF_ASC_NODE":351.2,"ARG_OF_PERICENTER":82.0167,"MEAN_ANOMALY":278.1186,"EPHEMERIS_TYPE":0,"CLASSIFICATION_TYPE":"U","NORAD_CAT_ID":48050,"ELEMENT_SET_NO":999,"REV_AT_EPOCH":23309,"BSTAR":-0.00010182772,"MEAN_MOTION_DOT":-2.5e-7,"MEAN_MOTION_DDOT":0},{"OBJECT_NAME":"ONEWEB-0112","OBJECT_ID":"2021-025K","EPOCH":"2026-01-11T22:41:41.625888","MEAN_MOTION":13.13468506,"ECCENTRICITY":0.00014927,"INCLINATION":87.9002,"RA_OF_ASC_NODE":351.2487,"ARG_OF_PERICENTER":85.0087,"MEAN_ANOMALY":275.1213,"EPHEMERIS_TYPE":0,"CLASSIFICATION_TYPE":"U","NORAD_CAT_ID":48051,"ELEMENT_SET_NO":999,"REV_AT_EPOCH":23308,"BSTAR":1.7146988e-5,"MEAN_MOTION_DOT":1.9e-7,"MEAN_MOTION_DDOT":0},{"OBJECT_NAME":"ONEWEB-0156","OBJECT_ID":"2021-025L","EPOCH":"2026-01-11T22:53:53.404512","MEAN_MOTION":13.13470871,"ECCENTRICITY":0.00017559,"INCLINATION":87.9002,"RA_OF_ASC_NODE":351.2585,"ARG_OF_PERICENTER":88.6546,"MEAN_ANOMALY":271.4784,"EPHEMERIS_TYPE":0,"CLASSIFICATION_TYPE":"U","NORAD_CAT_ID":48052,"ELEMENT_SET_NO":999,"REV_AT_EPOCH":23306,"BSTAR":-0.00059695774,"MEAN_MOTION_DOT":-2.05e-6,"MEAN_MOTION_DDOT":0},{"OBJECT_NAME":"ONEWEB-0161","OBJECT_ID":"2021-025M","EPOCH":"2026-01-12T07:25:48.952704","MEAN_MOTION":13.13469783,"ECCENTRICITY":0.00017105,"INCLINATION":87.8996,"RA_OF_ASC_NODE":351.2013,"ARG_OF_PERICENTER":90.2021,"MEAN_ANOMALY":269.9304,"EPHEMERIS_TYPE":0,"CLASSIFICATION_TYPE":"U","NORAD_CAT_ID":48053,"ELEMENT_SET_NO":999,"REV_AT_EPOCH":23304,"BSTAR":0.001059642,"MEAN_MOTION_DOT":4.0e-6,"MEAN_MOTION_DDOT":0},{"OBJECT_NAME":"ONEWEB-0158","OBJECT_ID":"2021-025N","EPOCH":"2026-01-11T23:08:31.239744","MEAN_MOTION":13.13470099,"ECCENTRICITY":0.00017998,"INCLINATION":87.9,"RA_OF_ASC_NODE":351.2565,"ARG_OF_PERICENTER":74.0124,"MEAN_ANOMALY":286.1203,"EPHEMERIS_TYPE":0,"CLASSIFICATION_TYPE":"U","NORAD_CAT_ID":48054,"ELEMENT_SET_NO":999,"REV_AT_EPOCH":23312,"BSTAR":-0.00053536326,"MEAN_MOTION_DOT":-1.83e-6,"MEAN_MOTION_DDOT":0},{"OBJECT_NAME":"ONEWEB-0157","OBJECT_ID":"2021-025P","EPOCH":"2026-01-12T07:03:52.609824","MEAN_MOTION":13.13469229,"ECCENTRICITY":0.00015401,"INCLINATION":87.9,"RA_OF_ASC_NODE":351.1962,"ARG_OF_PERICENTER":96.7506,"MEAN_ANOMALY":263.3798,"EPHEMERIS_TYPE":0,"CLASSIFICATION_TYPE":"U","NORAD_CAT_ID":48055,"ELEMENT_SET_NO":999,"REV_AT_EPOCH":23310,"BSTAR":4.2374941e-5,"MEAN_MOTION_DOT":2.8e-7,"MEAN_MOTION_DDOT":0},{"OBJECT_NAME":"ONEWEB-0162","OBJECT_ID":"2021-025Q","EPOCH":"2026-01-11T21:21:03.688128","MEAN_MOTION":13.13470506,"ECCENTRICITY":0.00018855,"INCLINATION":87.9004,"RA_OF_ASC_NODE":351.2799,"ARG_OF_PERICENTER":88.2168,"MEAN_ANOMALY":271.9177,"EPHEMERIS_TYPE":0,"CLASSIFICATION_TYPE":"U","NORAD_CAT_ID":48056,"ELEMENT_SET_NO":999,"REV_AT_EPOCH":23302,"BSTAR":-0.00066167689,"MEAN_MOTION_DOT":-2.29e-6,"MEAN_MOTION_DDOT":0},{"OBJECT_NAME":"ONEWEB-0155","OBJECT_ID":"2021-025R","EPOCH":"2026-01-11T23:20:41.720640","MEAN_MOTION":13.13471126,"ECCENTRICITY":0.00015884,"INCLINATION":87.8994,"RA_OF_ASC_NODE":351.267,"ARG_OF_PERICENTER":85.3823,"MEAN_ANOMALY":274.7488,"EPHEMERIS_TYPE":0,"CLASSIFICATION_TYPE":"U","NORAD_CAT_ID":48057,"ELEMENT_SET_NO":999,"REV_AT_EPOCH":23317,"BSTAR":-0.00056768549,"MEAN_MOTION_DOT":-1.95e-6,"MEAN_MOTION_DDOT":0},{"OBJECT_NAME":"ONEWEB-0149","OBJECT_ID":"2021-025S","EPOCH":"2026-01-12T07:11:11.408640","MEAN_MOTION":13.1346953,"ECCENTRICITY":0.00019331,"INCLINATION":87.9001,"RA_OF_ASC_NODE":351.1957,"ARG_OF_PERICENTER":88.3286,"MEAN_ANOMALY":271.8065,"EPHEMERIS_TYPE":0,"CLASSIFICATION_TYPE":"U","NORAD_CAT_ID":48058,"ELEMENT_SET_NO":999,"REV_AT_EPOCH":23302,"BSTAR":0.00068448965,"MEAN_MOTION_DOT":2.63e-6,"MEAN_MOTION_DDOT":0},{"OBJECT_NAME":"ONEWEB-0148","OBJECT_ID":"2021-025T","EPOCH":"2026-01-11T22:58:46.297920","MEAN_MOTION":13.13469301,"ECCENTRICITY":0.0002171,"INCLINATION":87.8994,"RA_OF_ASC_NODE":351.2815,"ARG_OF_PERICENTER":98.5595,"MEAN_ANOMALY":261.578,"EPHEMERIS_TYPE":0,"CLASSIFICATION_TYPE":"U","NORAD_CAT_ID":48059,"ELEMENT_SET_NO":999,"REV_AT_EPOCH":23310,"BSTAR":-0.00048260274,"MEAN_MOTION_DOT":-1.63e-6,"MEAN_MOTION_DDOT":0},{"OBJECT_NAME":"ONEWEB-0160","OBJECT_ID":"2021-025U","EPOCH":"2026-01-11T23:23:08.975616","MEAN_MOTION":13.13469856,"ECCENTRICITY":0.00022046,"INCLINATION":87.8994,"RA_OF_ASC_NODE":351.2754,"ARG_OF_PERICENTER":65.9762,"MEAN_ANOMALY":294.1598,"EPHEMERIS_TYPE":0,"CLASSIFICATION_TYPE":"U","NORAD_CAT_ID":48060,"ELEMENT_SET_NO":999,"REV_AT_EPOCH":23305,"BSTAR":-0.00077166592,"MEAN_MOTION_DOT":-2.69e-6,"MEAN_MOTION_DDOT":0},{"OBJECT_NAME":"ONEWEB-0163","OBJECT_ID":"2021-025V","EPOCH":"2026-01-11T23:01:12.276768","MEAN_MOTION":13.13470646,"ECCENTRICITY":0.00015642,"INCLINATION":87.9,"RA_OF_ASC_NODE":351.267,"ARG_OF_PERICENTER":92.3499,"MEAN_ANOMALY":267.7809,"EPHEMERIS_TYPE":0,"CLASSIFICATION_TYPE":"U","NORAD_CAT_ID":48061,"ELEMENT_SET_NO":999,"REV_AT_EPOCH":23317,"BSTAR":-0.00069975815,"MEAN_MOTION_DOT":-2.43e-6,"MEAN_MOTION_DDOT":0},{"OBJECT_NAME":"ONEWEB-0159","OBJECT_ID":"2021-025W","EPOCH":"2026-01-11T22:49:01.240320","MEAN_MOTION":13.13471569,"ECCENTRICITY":0.00017807,"INCLINATION":87.9005,"RA_OF_ASC_NODE":351.2528,"ARG_OF_PERICENTER":91.0576,"MEAN_ANOMALY":269.0757,"EPHEMERIS_TYPE":0,"CLASSIFICATION_TYPE":"U","NORAD_CAT_ID":48062,"ELEMENT_SET_NO":999,"REV_AT_EPOCH":23309,"BSTAR":-0.0018468961,"MEAN_MOTION_DOT":-6.62e-6,"MEAN_MOTION_DDOT":0},{"OBJECT_NAME":"ONEWEB-0164","OBJECT_ID":"2021-025X","EPOCH":"2026-01-11T22:22:11.896032","MEAN_MOTION":13.13470858,"ECCENTRICITY":0.00017566,"INCLINATION":87.9003,"RA_OF_ASC_NODE":351.2633,"ARG_OF_PERICENTER":81.2691,"MEAN_ANOMALY":278.8637,"EPHEMERIS_TYPE":0,"CLASSIFICATION_TYPE":"U","NORAD_CAT_ID":48063,"ELEMENT_SET_NO":999,"REV_AT_EPOCH":23307,"BSTAR":0.00087039889,"MEAN_MOTION_DOT":3.31e-6,"MEAN_MOTION_DDOT":0},{"OBJECT_NAME":"ONEWEB-0167","OBJECT_ID":"2021-025Y","EPOCH":"2026-01-11T23:02:25.654560","MEAN_MOTION":13.13470701,"ECCENTRICITY":0.00010289,"INCLINATION":87.8991,"RA_OF_ASC_NODE":351.2825,"ARG_OF_PERICENTER":83.7912,"MEAN_ANOMALY":276.3335,"EPHEMERIS_TYPE":0,"CLASSIFICATION_TYPE":"U","NORAD_CAT_ID":48064,"ELEMENT_SET_NO":999,"REV_AT_EPOCH":23306,"BSTAR":-0.00087983698,"MEAN_MOTION_DOT":-3.09e-6,"MEAN_MOTION_DDOT":0},{"OBJECT_NAME":"ONEWEB-0166","OBJECT_ID":"2021-025Z","EPOCH":"2026-01-11T21:45:38.599200","MEAN_MOTION":13.13470046,"ECCENTRICITY":0.00018353,"INCLINATION":87.8999,"RA_OF_ASC_NODE":351.2517,"ARG_OF_PERICENTER":89.8292,"MEAN_ANOMALY":270.3047,"EPHEMERIS_TYPE":0,"CLASSIFICATION_TYPE":"U","NORAD_CAT_ID":48065,"ELEMENT_SET_NO":999,"REV_AT_EPOCH":23313,"BSTAR":5.330836e-5,"MEAN_MOTION_DOT":3.2e-7,"MEAN_MOTION_DDOT":0}]
